{
    "links": {
        "self": "http://www.neowsapp.com/rest/v1/neo/3664062?api_key=iIulBulltgU6a56xZRHN4H3l9WmuAYTsLGpBGhQ2"
    },
    "id": "3664062",
    "neo_reference_id": "3664062",
    "name": "(2014 EN45)",
    "designation": "2014 EN45",
    "nasa_jpl_url": "http://ssd.jpl.nasa.gov/sbdb.cgi?sstr=3664062",
    "absolute_magnitude_h": 21.2,
    "estimated_diameter": {
        "kilometers": {
            "estimated_diameter_min": 0.1529519353,
            "estimated_diameter_max": 0.3420109247
        },
        "meters": {
            "estimated_diameter_min": 152.9519353442,
            "estimated_diameter_max": 342.0109247198
        },
        "miles": {
            "estimated_diameter_min": 0.095039897,
            "estimated_diameter_max": 0.2125156703
        },
        "feet": {
            "estimated_diameter_min": 501.8108275547,
            "estimated_diameter_max": 1122.0831222578
        }
    },
    "is_potentially_hazardous_asteroid": false,
    "close_approach_data": [
        {
            "close_approach_date": "2014-01-28",
            "close_approach_date_full": "2014-Jan-28 21:47",
            "epoch_date_close_approach": 1390945620000,
            "relative_velocity": {
                "kilometers_per_second": "15.2594030607",
                "kilometers_per_hour": "54933.851018664",
                "miles_per_hour": "34133.7587065693"
            },
            "miss_distance": {
                "astronomical": "0.2555661248",
                "lunar": "99.4152225472",
                "kilometers": "38232147.914234176",
                "miles": "23756355.1170805888"
            },
            "orbiting_body": "Earth"
        }
    ],
    "orbital_data": {
        "orbit_id": "8",
        "orbit_determination_date": "2017-04-06 08:42:03",
        "first_observation_date": "2014-03-06",
        "last_observation_date": "2014-04-21",
        "data_arc_in_days": 46,
        "observations_used": 37,
        "orbit_uncertainty": "8",
        "minimum_orbit_intersection": ".155731",
        "jupiter_tisserand_invariant": "3.227",
        "epoch_osculation": "2456732.5",
        "eccentricity": ".5674623519165797",
        "semi_major_axis": "2.43997500302537",
        "inclination": "14.02335328731647",
        "ascending_node_longitude": "295.3411375366298",
        "orbital_period": "1392.119422063814",
        "perihelion_distance": "1.05538104919093",
        "perihelion_argument": "232.3037779774396",
        "aphelion_distance": "3.82456895685981",
        "perihelion_time": "2456710.896909157020",
        "mean_anomaly": "5.586526974778677",
        "mean_motion": ".2585985040466576",
        "equinox": "J2000",
        "orbit_class": {
            "orbit_class_type": "AMO",
            "orbit_class_description": "Near-Earth asteroid orbits similar to that of 1221 Amor",
            "orbit_class_range": "1.017 AU < q (perihelion) < 1.3 AU"
        }
    },
    "is_sentry_object": false
}